[{"OBJECT_NAME":"TIANLIAN 2-03","OBJECT_ID":"2022-078A","EPOCH":"2026-03-28T08:33:38.479968","MEAN_MOTION":1.00272915,"ECCENTRICITY":0.00030103,"INCLINATION":0.4655,"RA_OF_ASC_NODE":74.2663,"ARG_OF_PERICENTER":267.9175,"MEAN_ANOMALY":342.5541,"EPHEMERIS_TYPE":0,"CLASSIFICATION_TYPE":"U","NORAD_CAT_ID":53100,"ELEMENT_SET_NO":999,"REV_AT_EPOCH":1373,"BSTAR":0,"MEAN_MOTION_DOT":5.3e-7,"MEAN_MOTION_DDOT":0},{"OBJECT_NAME":"SBIRS GEO-6 (USA 336)","OBJECT_ID":"2022-092A","EPOCH":"2026-03-28T20:34:47.256960","MEAN_MOTION":1.00271318,"ECCENTRICITY":0.0002207,"INCLINATION":3.3959,"RA_OF_ASC_NODE":316.2096,"ARG_OF_PERICENTER":40.7907,"MEAN_ANOMALY":276.9406,"EPHEMERIS_TYPE":0,"CLASSIFICATION_TYPE":"U","NORAD_CAT_ID":53355,"ELEMENT_SET_NO":999,"REV_AT_EPOCH":1342,"BSTAR":0,"MEAN_MOTION_DOT":-3.15e-6,"MEAN_MOTION_DDOT":0},{"OBJECT_NAME":"EUTELSAT KONNECT VHTS","OBJECT_ID":"2022-110A","EPOCH":"2026-03-28T20:21:38.559744","MEAN_MOTION":1.00270191,"ECCENTRICITY":0.0002903,"INCLINATION":0.0607,"RA_OF_ASC_NODE":102.5465,"ARG_OF_PERICENTER":234.9321,"MEAN_ANOMALY":156.8607,"EPHEMERIS_TYPE":0,"CLASSIFICATION_TYPE":"U","NORAD_CAT_ID":53765,"ELEMENT_SET_NO":999,"REV_AT_EPOCH":603,"BSTAR":0,"MEAN_MOTION_DOT":-3.0e-8,"MEAN_MOTION_DDOT":0},{"OBJECT_NAME":"ZHONGXING-1E","OBJECT_ID":"2022-112A","EPOCH":"2026-03-28T20:59:38.496768","MEAN_MOTION":1.00271253,"ECCENTRICITY":0.0002267,"INCLINATION":0.0365,"RA_OF_ASC_NODE":343.3383,"ARG_OF_PERICENTER":323.0417,"MEAN_ANOMALY":276.2317,"EPHEMERIS_TYPE":0,"CLASSIFICATION_TYPE":"U","NORAD_CAT_ID":53813,"ELEMENT_SET_NO":999,"REV_AT_EPOCH":1304,"BSTAR":0,"MEAN_MOTION_DOT":-1.69e-6,"MEAN_MOTION_DDOT":0},{"OBJECT_NAME":"SES-20","OBJECT_ID":"2022-123A","EPOCH":"2026-03-28T12:15:38.523456","MEAN_MOTION":1.00273465,"ECCENTRICITY":0.0001507,"INCLINATION":0.0301,"RA_OF_ASC_NODE":92.6008,"ARG_OF_PERICENTER":326.1773,"MEAN_ANOMALY":207.9425,"EPHEMERIS_TYPE":0,"CLASSIFICATION_TYPE":"U","NORAD_CAT_ID":53960,"ELEMENT_SET_NO":999,"REV_AT_EPOCH":1272,"BSTAR":0,"MEAN_MOTION_DOT":-1.21e-6,"MEAN_MOTION_DDOT":0},{"OBJECT_NAME":"SES-21","OBJECT_ID":"2022-123B","EPOCH":"2026-03-28T07:19:03.335808","MEAN_MOTION":1.00274783,"ECCENTRICITY":0.00011804,"INCLINATION":0.0266,"RA_OF_ASC_NODE":72.2465,"ARG_OF_PERICENTER":285.389,"MEAN_ANOMALY":166.848,"EPHEMERIS_TYPE":0,"CLASSIFICATION_TYPE":"U","NORAD_CAT_ID":53961,"ELEMENT_SET_NO":999,"REV_AT_EPOCH":640,"BSTAR":0,"MEAN_MOTION_DOT":4.9e-7,"MEAN_MOTION_DDOT":0},{"OBJECT_NAME":"GALAXY 33 (G-33)","OBJECT_ID":"2022-128A","EPOCH":"2026-03-28T15:51:51.598368","MEAN_MOTION":1.00270244,"ECCENTRICITY":0.0001882,"INCLINATION":0.0278,"RA_OF_ASC_NODE":82.8726,"ARG_OF_PERICENTER":272.1624,"MEAN_ANOMALY":295.9805,"EPHEMERIS_TYPE":0,"CLASSIFICATION_TYPE":"U","NORAD_CAT_ID":54026,"ELEMENT_SET_NO":999,"REV_AT_EPOCH":1293,"BSTAR":0,"MEAN_MOTION_DOT":6.0e-7,"MEAN_MOTION_DDOT":0},{"OBJECT_NAME":"GALAXY 34 (G-34)","OBJECT_ID":"2022-128B","EPOCH":"2026-03-28T12:23:38.721696","MEAN_MOTION":1.00268357,"ECCENTRICITY":0.0001484,"INCLINATION":0.0198,"RA_OF_ASC_NODE":170.9941,"ARG_OF_PERICENTER":190.3331,"MEAN_ANOMALY":241.5926,"EPHEMERIS_TYPE":0,"CLASSIFICATION_TYPE":"U","NORAD_CAT_ID":54027,"ELEMENT_SET_NO":999,"REV_AT_EPOCH":1310,"BSTAR":0,"MEAN_MOTION_DOT":0,"MEAN_MOTION_DDOT":0},{"OBJECT_NAME":"ANGOSAT 2","OBJECT_ID":"2022-131A","EPOCH":"2026-03-26T18:24:00.141120","MEAN_MOTION":1.00269817,"ECCENTRICITY":2.66e-5,"INCLINATION":0.018,"RA_OF_ASC_NODE":177.0476,"ARG_OF_PERICENTER":284.3154,"MEAN_ANOMALY":21.8233,"EPHEMERIS_TYPE":0,"CLASSIFICATION_TYPE":"U","NORAD_CAT_ID":54033,"ELEMENT_SET_NO":999,"REV_AT_EPOCH":1265,"BSTAR":0,"MEAN_MOTION_DOT":1.18e-6,"MEAN_MOTION_DDOT":0},{"OBJECT_NAME":"EUTELSAT HOTBIRD 13F","OBJECT_ID":"2022-134A","EPOCH":"2026-03-28T18:16:07.762944","MEAN_MOTION":1.00271701,"ECCENTRICITY":0.000198,"INCLINATION":0.0557,"RA_OF_ASC_NODE":287.3241,"ARG_OF_PERICENTER":69.5197,"MEAN_ANOMALY":116.3451,"EPHEMERIS_TYPE":0,"CLASSIFICATION_TYPE":"U","NORAD_CAT_ID":54048,"ELEMENT_SET_NO":999,"REV_AT_EPOCH":1257,"BSTAR":0,"MEAN_MOTION_DOT":6.7e-7,"MEAN_MOTION_DDOT":0},{"OBJECT_NAME":"LDPE-2","OBJECT_ID":"2022-144A","EPOCH":"2026-03-28T14:44:51.737280","MEAN_MOTION":1.00544654,"ECCENTRICITY":2.6e-5,"INCLINATION":5.4477,"RA_OF_ASC_NODE":64.1024,"ARG_OF_PERICENTER":260.2894,"MEAN_ANOMALY":210.4352,"EPHEMERIS_TYPE":0,"CLASSIFICATION_TYPE":"U","NORAD_CAT_ID":54219,"ELEMENT_SET_NO":999,"REV_AT_EPOCH":1103,"BSTAR":0,"MEAN_MOTION_DOT":-3.34e-6,"MEAN_MOTION_DDOT":0},{"OBJECT_NAME":"EUTELSAT HOTBIRD 13G","OBJECT_ID":"2022-146A","EPOCH":"2026-03-28T19:55:38.568864","MEAN_MOTION":1.00271623,"ECCENTRICITY":0.0001943,"INCLINATION":0.0445,"RA_OF_ASC_NODE":231.1887,"ARG_OF_PERICENTER":315.3586,"MEAN_ANOMALY":311.584,"EPHEMERIS_TYPE":0,"CLASSIFICATION_TYPE":"U","NORAD_CAT_ID":54225,"ELEMENT_SET_NO":999,"REV_AT_EPOCH":666,"BSTAR":0,"MEAN_MOTION_DOT":6.7e-7,"MEAN_MOTION_DDOT":0},{"OBJECT_NAME":"ZHONGXING-19","OBJECT_ID":"2022-148A","EPOCH":"2026-03-28T18:59:03.647616","MEAN_MOTION":1.0027167,"ECCENTRICITY":0.0002408,"INCLINATION":0.0205,"RA_OF_ASC_NODE":142.1953,"ARG_OF_PERICENTER":218.5879,"MEAN_ANOMALY":273.3513,"EPHEMERIS_TYPE":0,"CLASSIFICATION_TYPE":"U","NORAD_CAT_ID":54230,"ELEMENT_SET_NO":999,"REV_AT_EPOCH":1257,"BSTAR":0,"MEAN_MOTION_DOT":-1.01e-6,"MEAN_MOTION_DDOT":0},{"OBJECT_NAME":"GALAXY 31 (G-31)","OBJECT_ID":"2022-153A","EPOCH":"2026-03-28T15:55:13.776096","MEAN_MOTION":1.00271346,"ECCENTRICITY":0.0001439,"INCLINATION":0.018,"RA_OF_ASC_NODE":134.3613,"ARG_OF_PERICENTER":232.8915,"MEAN_ANOMALY":296.6105,"EPHEMERIS_TYPE":0,"CLASSIFICATION_TYPE":"U","NORAD_CAT_ID":54243,"ELEMENT_SET_NO":999,"REV_AT_EPOCH":632,"BSTAR":0,"MEAN_MOTION_DOT":-6.0e-8,"MEAN_MOTION_DDOT":0},{"OBJECT_NAME":"GALAXY 32 (G-32)","OBJECT_ID":"2022-153B","EPOCH":"2026-03-28T12:38:25.147680","MEAN_MOTION":1.00271225,"ECCENTRICITY":0.000295,"INCLINATION":0.015,"RA_OF_ASC_NODE":118.7764,"ARG_OF_PERICENTER":242.1591,"MEAN_ANOMALY":283.598,"EPHEMERIS_TYPE":0,"CLASSIFICATION_TYPE":"U","NORAD_CAT_ID":54244,"ELEMENT_SET_NO":999,"REV_AT_EPOCH":1233,"BSTAR":0,"MEAN_MOTION_DOT":-1.94e-6,"MEAN_MOTION_DDOT":0},{"OBJECT_NAME":"EUTELSAT 10B","OBJECT_ID":"2022-157A","EPOCH":"2026-03-28T20:21:38.559744","MEAN_MOTION":1.00266916,"ECCENTRICITY":0.0001039,"INCLINATION":0.0608,"RA_OF_ASC_NODE":98.3557,"ARG_OF_PERICENTER":32.6589,"MEAN_ANOMALY":10.6107,"EPHEMERIS_TYPE":0,"CLASSIFICATION_TYPE":"U","NORAD_CAT_ID":54259,"ELEMENT_SET_NO":999,"REV_AT_EPOCH":1222,"BSTAR":0,"MEAN_MOTION_DOT":4.8e-7,"MEAN_MOTION_DDOT":0},{"OBJECT_NAME":"GALAXY 35 (G-35)","OBJECT_ID":"2022-170A","EPOCH":"2026-03-28T14:20:30.359040","MEAN_MOTION":1.00271541,"ECCENTRICITY":0.0001993,"INCLINATION":0.0123,"RA_OF_ASC_NODE":146.0318,"ARG_OF_PERICENTER":217.5213,"MEAN_ANOMALY":304.4659,"EPHEMERIS_TYPE":0,"CLASSIFICATION_TYPE":"U","NORAD_CAT_ID":54741,"ELEMENT_SET_NO":999,"REV_AT_EPOCH":1208,"BSTAR":0,"MEAN_MOTION_DOT":-1.82e-6,"MEAN_MOTION_DDOT":0},{"OBJECT_NAME":"GALAXY 36 (G-36)","OBJECT_ID":"2022-170B","EPOCH":"2026-03-28T19:29:31.438752","MEAN_MOTION":1.00271487,"ECCENTRICITY":0.0002221,"INCLINATION":0.0112,"RA_OF_ASC_NODE":183.8957,"ARG_OF_PERICENTER":223.0563,"MEAN_ANOMALY":342.6397,"EPHEMERIS_TYPE":0,"CLASSIFICATION_TYPE":"U","NORAD_CAT_ID":54742,"ELEMENT_SET_NO":999,"REV_AT_EPOCH":1196,"BSTAR":0,"MEAN_MOTION_DOT":-2.05e-6,"MEAN_MOTION_DDOT":0},{"OBJECT_NAME":"METEOSAT-12 (MTG-I1)","OBJECT_ID":"2022-170C","EPOCH":"2026-03-28T19:55:03.838656","MEAN_MOTION":1.00272753,"ECCENTRICITY":0.0001869,"INCLINATION":0.7315,"RA_OF_ASC_NODE":25.4287,"ARG_OF_PERICENTER":290.1317,"MEAN_ANOMALY":169.087,"EPHEMERIS_TYPE":0,"CLASSIFICATION_TYPE":"U","NORAD_CAT_ID":54743,"ELEMENT_SET_NO":999,"REV_AT_EPOCH":1217,"BSTAR":0,"MEAN_MOTION_DOT":-2.6e-7,"MEAN_MOTION_DDOT":0},{"OBJECT_NAME":"SHIJIAN-23 (SJ-23)","OBJECT_ID":"2023-002A","EPOCH":"2026-03-28T18:34:53.945472","MEAN_MOTION":1.00478693,"ECCENTRICITY":0.0005797,"INCLINATION":3.5116,"RA_OF_ASC_NODE":79.3148,"ARG_OF_PERICENTER":264.3979,"MEAN_ANOMALY":269.2247,"EPHEMERIS_TYPE":0,"CLASSIFICATION_TYPE":"U","NORAD_CAT_ID":55131,"ELEMENT_SET_NO":999,"REV_AT_EPOCH":1170,"BSTAR":0,"MEAN_MOTION_DOT":-1.93e-6,"MEAN_MOTION_DDOT":0},{"OBJECT_NAME":"APSTAR-6E","OBJECT_ID":"2023-005A","EPOCH":"2026-03-25T14:34:38.425152","MEAN_MOTION":1.00267101,"ECCENTRICITY":8.76e-5,"INCLINATION":0.0189,"RA_OF_ASC_NODE":217.0922,"ARG_OF_PERICENTER":107.3207,"MEAN_ANOMALY":211.2565,"EPHEMERIS_TYPE":0,"CLASSIFICATION_TYPE":"U","NORAD_CAT_ID":55239,"ELEMENT_SET_NO":999,"REV_AT_EPOCH":1785,"BSTAR":0,"MEAN_MOTION_DOT":-3.31e-6,"MEAN_MOTION_DDOT":0},{"OBJECT_NAME":"USA 342","OBJECT_ID":"2023-008A","EPOCH":"2026-03-27T06:24:38.600352","MEAN_MOTION":1.00269249,"ECCENTRICITY":1.14e-5,"INCLINATION":0.0167,"RA_OF_ASC_NODE":183.2424,"ARG_OF_PERICENTER":195.5065,"MEAN_ANOMALY":285.9229,"EPHEMERIS_TYPE":0,"CLASSIFICATION_TYPE":"U","NORAD_CAT_ID":55263,"ELEMENT_SET_NO":999,"REV_AT_EPOCH":1169,"BSTAR":0,"MEAN_MOTION_DOT":0,"MEAN_MOTION_DDOT":0},{"OBJECT_NAME":"LDPE-3A","OBJECT_ID":"2023-008B","EPOCH":"2026-03-28T18:56:03.934752","MEAN_MOTION":0.99992039,"ECCENTRICITY":2.09e-5,"INCLINATION":2.1395,"RA_OF_ASC_NODE":82.6581,"ARG_OF_PERICENTER":251.4169,"MEAN_ANOMALY":289.6644,"EPHEMERIS_TYPE":0,"CLASSIFICATION_TYPE":"U","NORAD_CAT_ID":55264,"ELEMENT_SET_NO":999,"REV_AT_EPOCH":1101,"BSTAR":0,"MEAN_MOTION_DOT":-2.41e-6,"MEAN_MOTION_DDOT":0},{"OBJECT_NAME":"ELEKTRO-L 4","OBJECT_ID":"2023-016A","EPOCH":"2026-03-28T00:34:47.188992","MEAN_MOTION":1.00273778,"ECCENTRICITY":0.0001317,"INCLINATION":0.0571,"RA_OF_ASC_NODE":327.9723,"ARG_OF_PERICENTER":329.3576,"MEAN_ANOMALY":62.6334,"EPHEMERIS_TYPE":0,"CLASSIFICATION_TYPE":"U","NORAD_CAT_ID":55506,"ELEMENT_SET_NO":999,"REV_AT_EPOCH":1152,"BSTAR":0,"MEAN_MOTION_DOT":-7.7e-7,"MEAN_MOTION_DDOT":0}]
